INTELSAT 902 (IS-902)   
1 26900U 01039A   26165.53624534 -.00000281  00000+0  00000+0 0  9992
2 26900   6.1108  71.8168 0004488   8.0143 325.9476  1.00270945 90661
INTELSAT 904 (IS-904)   
1 27380U 02007A   26165.16112228 -.00000223  00000+0  00000+0 0  9998
2 27380   6.9124  69.2201 0006462   4.1571 215.6025  1.00271167 51732
DIRECTV 5 (TEMPO 1)     
1 27426U 02023A   26165.58818425 -.00000054  00000+0  00000+0 0  9997
2 27426   4.8712  75.3418 0003219  22.0501 267.1359  1.00271434 88098
INTELSAT 905 (IS-905)   
1 27438U 02027A   26165.59827877  .00000095  00000+0  00000+0 0  9990
2 27438   6.7471  69.8304 0003797  20.9273 250.3045  1.00272386 51330
GALAXY 3C (G-3C)        
1 27445U 02030A   26165.59863113 -.00000149  00000+0  00000+0 0  9996
2 27445   3.7249  78.0091 0001520  34.3645 271.1797  1.00271083 46463
INTELSAT 906 (IS-906)   
1 27513U 02041A   26165.20302568  .00000017  00000+0  00000+0 0  9997
2 27513   5.7955  72.9589 0004639   3.9186 322.8531  1.00272354 86990
GALAXY 13 (HORIZONS-1)  
1 27954U 03044A   26165.58771108  .00000138  00000+0  00000+0 0  9995
2 27954   1.4129  83.8980 0002296 349.3005 251.2580  1.00269853 46541
INTELSAT 10-02          
1 28358U 04022A   26165.61717788 -.00000004  00000+0  00000+0 0  9992
2 28358   0.0133 329.9129 0000208 229.7657 284.4073  1.00270847 80531
DIRECTV 8               
1 28659U 05019A   26165.59386444  .00000008  00000+0  00000+0 0  9994
2 28659   0.0136 304.8908 0002774 142.7356 270.0007  1.00271531 77046
GALAXY 28 (G-28)        
1 28702U 05022A   26165.39816582 -.00000195  00000+0  00000+0 0  9994
2 28702   3.2917  78.9679 0002870   3.2245 296.7451  1.00271143 51944
GALAXY 16 (G-16)        
1 29236U 06023A   26165.59776446 -.00000120  00000+0  00000+0 0  9993
2 29236   0.0087 291.7849 0002458 165.0817 282.2172  1.00271357 72948
DIRECTV 9S              
1 29494U 06043A   26165.59733112 -.00000108  00000+0  00000+0 0  9990
2 29494   2.4141  80.9318 0004831  11.4469 284.3646  1.00270819 51357
GALAXY 17 (G-17)        
1 31307U 07016B   26165.60053780 -.00000201  00000+0  00000+0 0  9999
2 31307   2.9657  79.9320 0004751  22.3024 291.8465  1.00269511 69774
INTELSAT 11 (IS-11)     
1 32253U 07044B   26165.66301126 -.00000273  00000+0  00000+0 0  9996
2 32253   3.5589  78.6991 0002225  91.2271 108.6748  0.99051914 68422
HORIZONS-2              
1 32388U 07063B   26165.53147865 -.00000248  00000+0  00000+0 0  9992
2 32388   2.5953  80.6570 0003712   0.5240 299.1930  1.00269251 67787
DIRECTV 11              
1 32729U 08013A   26165.45516331 -.00000118  00000+0  00000+0 0  9992
2 32729   0.0106 283.4991 0000315  84.8654 319.0725  1.00271642 45562
GALAXY 18 (G-18)        
1 32951U 08024A   26165.59308443  .00000032  00000+0  00000+0 0  9993
2 32951   0.0188  22.8247 0002676  62.4574 268.1147  1.00271690 45827
INTELSAT 25 (IS-25)     
1 33153U 08034A   26165.66030557 -.00000260  00000+0  00000+0 0  9999
2 33153   2.7033  80.4016 0003163  59.6000 133.5643  0.99035973 65667
GALAXY 19 (G-19)        
1 33376U 08045A   26165.59819779  .00000000  00000+0  00000+0 0  9992
2 33376   0.0205   7.5770 0002436  80.9940 292.6808  1.00270151 64879
FM-5                    
1 35493U 09034A   26165.52905197 -.00000193  00000+0  00000+0 0  9990
2 35493   0.0209 291.7234 0000813  20.4106  55.0050  1.00273268 46611
INTELSAT 14 (IS-14)     
1 36097U 09064A   26165.46591003 -.00000266  00000+0  00000+0 0  9995
2 36097   0.0178  43.6645 0002145  31.6715 310.1694  1.00270448 60574
INTELSAT 15 (IS-15)     
1 36106U 09067A   26165.63427258 -.00000178  00000+0  00000+0 0  9990
2 36106   0.0206  49.4431 0002016  37.9190 129.0566  1.00270800 41203
DIRECTV 12              
1 36131U 09075A   26165.50113972 -.00000096  00000+0  00000+0 0  9997
2 36131   0.0092 105.1956 0000341 293.5877 301.7061  1.00272446 46524
INTELSAT 16 (IS-16)     
1 36397U 10006A   26165.53104531 -.00000237  00000+0  00000+0 0  9998
2 36397   0.0221 300.6684 0001910 164.8498 272.2892  1.00269687 59626
XM-5                    
1 37185U 10053A   26165.50670015 -.00000016  00000+0  00000+0 0  9993
2 37185   0.0643 273.2093 0002914 287.0908 129.7245  1.00272045 57457
INTELSAT 17 (IS-17)     
1 37238U 10065B   26165.55921211  .00000006  00000+0  00000+0 0  9995
2 37238   0.0080  75.9239 0002573  15.8755  78.3669  1.00271256 53221
INTELSAT 28 (IS-28)     
1 37392U 11016A   26165.39721249 -.00000219  00000+0  00000+0 0  9991
2 37392   1.7990  82.6536 0003578   5.4221 285.9092  1.00270299 53259
INTELSAT 18 (IS-18)     
1 37834U 11056A   26165.43918064  .00000061  00000+0  00000+0 0  9998
2 37834   0.0172 293.8107 0001646 143.5188 163.5143  1.00273358 53789
INTELSAT 22 (IS-22)     
1 38098U 12011A   26165.55453046  .00000000  00000+0  00000+0 0  9993
2 38098   0.0398  52.0363 0001592  46.2017  76.3269  1.00271252  7163
INTELSAT 19 (IS-19)     
1 38356U 12030A   26165.50770383 -.00000049  00000+0  00000+0 0  9996
2 38356   0.0173 339.3923 0002782 112.1310 160.0537  1.00270945 50429
INTELSAT 20 (IS-20)     
1 38740U 12043A   26165.55964544 -.00000017  00000+0  00000+0 0  9991
2 38740   0.0050  74.1082 0001668 102.7764 355.9580  1.00269538 50722
